start=new Date('2023-04-01T00:00:00.000Z').valueOf();
sats=[{"ECCENTRICITY":"0.00025620","GP_ID":"229200882","MEAN_ELEMENT_THEORY":"SGP4","MEAN_MOTION":"15.01272525","TLE_LINE2":"2 53686  97.6587 332.8034 0002562  81.3747 278.7767 15.01272525 32379","ARG_OF_PERICENTER":"81.3747","ELEMENT_SET_NO":"999","EPOCH":"2023-03-31T14:52:27.737472","TIME_SYSTEM":"UTC","CLASSIFICATION_TYPE":"U","PERIOD":"95.919","RCS_SIZE":"LARGE","RA_OF_ASC_NODE":"332.8034","SITE":"AFWTR","REF_FRAME":"TEME","TLE_LINE1":"1 53686U 22105AQ  23090.61976548  .00004064  00000-0  32068-3 0  9994","SEMIMAJOR_AXIS":"6941.108","CENTER_NAME":"EARTH","MEAN_MOTION_DOT":"0.00004064","MEAN_MOTION_DDOT":"0.0000000000000","BSTAR":"0.00032068000000","FILE":"3876310","PERIAPSIS":"561.195","OBJECT_TYPE":"PAYLOAD","REV_AT_EPOCH":"3237","OBJECT_ID":"2022-105AQ","INCLINATION":"97.6587","OBJECT_NAME":"STARLINK-4467","MEAN_ANOMALY":"278.7767","EPHEMERIS_TYPE":"0","LAUNCH_DATE":"2022-08-31","COUNTRY_CODE":"US","DECAY_DATE":null,"NORAD_CAT_ID":"53686","APOAPSIS":"564.752"},{"MEAN_MOTION_DOT":"0.00008132","CENTER_NAME":"EARTH","SEMIMAJOR_AXIS":"6941.097","FILE":"3876310","BSTAR":"0.00063667000000","MEAN_MOTION_DDOT":"0.0000000000000","PERIAPSIS":"561.268","REV_AT_EPOCH":"3236","OBJECT_TYPE":"PAYLOAD","OBJECT_NAME":"STARLINK-4569","INCLINATION":"97.6590","EPHEMERIS_TYPE":"0","MEAN_ANOMALY":"259.8980","OBJECT_ID":"2022-105AR","DECAY_DATE":null,"COUNTRY_CODE":"US","LAUNCH_DATE":"2022-08-31","APOAPSIS":"564.657","NORAD_CAT_ID":"53687","MEAN_ELEMENT_THEORY":"SGP4","ECCENTRICITY":"0.00024410","GP_ID":"229200545","MEAN_MOTION":"15.01276036","ARG_OF_PERICENTER":"100.2519","TLE_LINE2":"2 53687  97.6590 332.7376 0002441 100.2519 259.8980 15.01276036 32363","TIME_SYSTEM":"UTC","ELEMENT_SET_NO":"999","EPOCH":"2023-03-31T13:19:09.103008","PERIOD":"95.918","CLASSIFICATION_TYPE":"U","RCS_SIZE":"LARGE","SITE":"AFWTR","RA_OF_ASC_NODE":"332.7376","TLE_LINE1":"1 53687U 22105AR  23090.55496647  .00008132  00000-0  63667-3 0  9994","REF_FRAME":"TEME"},{"RCS_SIZE":"LARGE","PERIOD":"95.919","CLASSIFICATION_TYPE":"U","TLE_LINE1":"1 53688U 22105AS  23090.61606282  .00004374  00000-0  34486-3 0  9991","REF_FRAME":"TEME","SITE":"AFWTR","RA_OF_ASC_NODE":"332.8031","MEAN_MOTION":"15.01270735","MEAN_ELEMENT_THEORY":"SGP4","ECCENTRICITY":"0.00021630","GP_ID":"229200554","EPOCH":"2023-03-31T14:47:07.827648","ELEMENT_SET_NO":"999","TIME_SYSTEM":"UTC","ARG_OF_PERICENTER":"97.3065","TLE_LINE2":"2 53688  97.6581 332.8031 0002163  97.3065 262.8405 15.01270735 32373","DECAY_DATE":null,"COUNTRY_CODE":"US","LAUNCH_DATE":"2022-08-31","INCLINATION":"97.6581","OBJECT_NAME":"STARLINK-4571","EPHEMERIS_TYPE":"0","MEAN_ANOMALY":"262.8405","OBJECT_ID":"2022-105AS","APOAPSIS":"564.480","NORAD_CAT_ID":"53688","FILE":"3876310","MEAN_MOTION_DDOT":"0.0000000000000","BSTAR":"0.00034486000000","MEAN_MOTION_DOT":"0.00004374","SEMIMAJOR_AXIS":"6941.114","CENTER_NAME":"EARTH","REV_AT_EPOCH":"3237","OBJECT_TYPE":"PAYLOAD","PERIAPSIS":"561.477"},{"SITE":"AFWTR","RA_OF_ASC_NODE":"332.7382","TLE_LINE1":"1 53689U 22105AT  23090.55126280  .00003965  00000-0  31304-3 0  9991","REF_FRAME":"TEME","PERIOD":"95.919","CLASSIFICATION_TYPE":"U","RCS_SIZE":"LARGE","TLE_LINE2":"2 53689  97.6573 332.7382 0003042  92.2075 267.9498 15.01268310 32368","ARG_OF_PERICENTER":"92.2075","TIME_SYSTEM":"UTC","ELEMENT_SET_NO":"999","EPOCH":"2023-03-31T13:13:49.105920","MEAN_ELEMENT_THEORY":"SGP4","GP_ID":"229200880","ECCENTRICITY":"0.00030420","MEAN_MOTION":"15.01268310","APOAPSIS":"565.098","NORAD_CAT_ID":"53689","OBJECT_NAME":"STARLINK-4562","MEAN_ANOMALY":"267.9498","INCLINATION":"97.6573","EPHEMERIS_TYPE":"0","OBJECT_ID":"2022-105AT","DECAY_DATE":null,"LAUNCH_DATE":"2022-08-31","COUNTRY_CODE":"US","PERIAPSIS":"560.875","REV_AT_EPOCH":"3236","OBJECT_TYPE":"PAYLOAD","MEAN_MOTION_DOT":"0.00003965","CENTER_NAME":"EARTH","SEMIMAJOR_AXIS":"6941.121","FILE":"3876310","BSTAR":"0.00031304000000","MEAN_MOTION_DDOT":"0.0000000000000"},{"ARG_OF_PERICENTER":"93.2468","TLE_LINE2":"2 53690  97.6572 332.7369 0003993  93.2468 266.9213 15.01268123 32362","TIME_SYSTEM":"UTC","ELEMENT_SET_NO":"999","EPOCH":"2023-03-31T13:08:29.487264","ECCENTRICITY":"0.00039930","GP_ID":"229200552","MEAN_ELEMENT_THEORY":"SGP4","MEAN_MOTION":"15.01268123","RA_OF_ASC_NODE":"332.7369","SITE":"AFWTR","REF_FRAME":"TEME","TLE_LINE1":"1 53690U 22105AU  23090.54756351  .00002894  00000-0  22971-3 0  9990","CLASSIFICATION_TYPE":"U","PERIOD":"95.919","RCS_SIZE":"LARGE","PERIAPSIS":"560.215","OBJECT_TYPE":"PAYLOAD","REV_AT_EPOCH":"3236","CENTER_NAME":"EARTH","SEMIMAJOR_AXIS":"6941.122","MEAN_MOTION_DOT":"0.00002894","BSTAR":"0.00022971000000","MEAN_MOTION_DDOT":"0.0000000000000","FILE":"3876310","NORAD_CAT_ID":"53690","APOAPSIS":"565.758","OBJECT_ID":"2022-105AU","INCLINATION":"97.6572","EPHEMERIS_TYPE":"0","MEAN_ANOMALY":"266.9213","OBJECT_NAME":"STARLINK-4570","LAUNCH_DATE":"2022-08-31","COUNTRY_CODE":"US","DECAY_DATE":null},{"ELEMENT_SET_NO":"999","EPOCH":"2023-03-31T14:44:49.386336","TIME_SYSTEM":"UTC","ARG_OF_PERICENTER":"96.6829","TLE_LINE2":"2 53691  97.6562 332.8011 0004038  96.6829 263.4855 15.01270965 32378","MEAN_MOTION":"15.01270965","MEAN_ELEMENT_THEORY":"SGP4","GP_ID":"229200566","ECCENTRICITY":"0.00040380","TLE_LINE1":"1 53691U 22105AV  23090.61446049  .00008870  00000-0  69399-3 0  9994","REF_FRAME":"TEME","SITE":"AFWTR","RA_OF_ASC_NODE":"332.8011","RCS_SIZE":"LARGE","PERIOD":"95.919","CLASSIFICATION_TYPE":"U","REV_AT_EPOCH":"3237","OBJECT_TYPE":"PAYLOAD","PERIAPSIS":"560.175","FILE":"3876321","MEAN_MOTION_DDOT":"0.0000000000000","BSTAR":"0.00069399000000","MEAN_MOTION_DOT":"0.00008870","SEMIMAJOR_AXIS":"6941.113","CENTER_NAME":"EARTH","APOAPSIS":"565.781","NORAD_CAT_ID":"53691","DECAY_DATE":null,"LAUNCH_DATE":"2022-08-31","COUNTRY_CODE":"US","MEAN_ANOMALY":"263.4855","OBJECT_NAME":"STARLINK-4560","INCLINATION":"97.6562","EPHEMERIS_TYPE":"0","OBJECT_ID":"2022-105AV"},{"APOAPSIS":"566.057","NORAD_CAT_ID":"53692","MEAN_ANOMALY":"282.0606","INCLINATION":"97.6596","EPHEMERIS_TYPE":"0","OBJECT_NAME":"STARLINK-4572","OBJECT_ID":"2022-105AW","DECAY_DATE":null,"COUNTRY_CODE":"US","LAUNCH_DATE":"2022-08-31","PERIAPSIS":"559.902","REV_AT_EPOCH":"3230","OBJECT_TYPE":"PAYLOAD","MEAN_MOTION_DOT":"0.00003679","SEMIMAJOR_AXIS":"6941.115","CENTER_NAME":"EARTH","FILE":"3875986","MEAN_MOTION_DDOT":"0.0000000000000","BSTAR":"0.00029080000000","SITE":"AFWTR","RA_OF_ASC_NODE":"332.3417","TLE_LINE1":"1 53692U 22105AW  23090.14580085  .00003679  00000-0  29080-3 0  9997","REF_FRAME":"TEME","PERIOD":"95.919","CLASSIFICATION_TYPE":"U","RCS_SIZE":"LARGE","TLE_LINE2":"2 53692  97.6596 332.3417 0004434  78.1116 282.0606 15.01270424 32309","ARG_OF_PERICENTER":"78.1116","ELEMENT_SET_NO":"999","EPOCH":"2023-03-31T03:29:57.193440","TIME_SYSTEM":"UTC","MEAN_ELEMENT_THEORY":"SGP4","ECCENTRICITY":"0.00044340","GP_ID":"229194261","MEAN_MOTION":"15.01270424"},{"CENTER_NAME":"EARTH","SEMIMAJOR_AXIS":"6941.085","MEAN_MOTION_DOT":"0.00007943","BSTAR":"0.00062180000000","MEAN_MOTION_DDOT":"0.0000000000000","FILE":"3876580","PERIAPSIS":"559.267","OBJECT_TYPE":"PAYLOAD","REV_AT_EPOCH":"3239","OBJECT_ID":"2022-105AX","EPHEMERIS_TYPE":"0","INCLINATION":"97.6564","MEAN_ANOMALY":"275.0088","OBJECT_NAME":"STARLINK-4566","LAUNCH_DATE":"2022-08-31","COUNTRY_CODE":"US","DECAY_DATE":null,"NORAD_CAT_ID":"53693","APOAPSIS":"566.634","ECCENTRICITY":"0.00053070","GP_ID":"229207408","MEAN_ELEMENT_THEORY":"SGP4","MEAN_MOTION":"15.01279970","TLE_LINE2":"2 53693  97.6564 332.9293 0005307  85.1742 275.0088 15.01279970 32396","ARG_OF_PERICENTER":"85.1742","TIME_SYSTEM":"UTC","EPOCH":"2023-03-31T17:51:05.833728","ELEMENT_SET_NO":"999","CLASSIFICATION_TYPE":"U","PERIOD":"95.918","RCS_SIZE":"LARGE","RA_OF_ASC_NODE":"332.9293","SITE":"AFWTR","REF_FRAME":"TEME","TLE_LINE1":"1 53693U 22105AX  23090.74381752  .00007943  00000-0  62180-3 0  9990"},{"PERIOD":"95.438","CLASSIFICATION_TYPE":"U","RCS_SIZE":"LARGE","SITE":"AFETR","RA_OF_ASC_NODE":"24.4672","TLE_LINE1":"1 53700U 22107A   23090.83566703 -.00002803  00000-0 -15815-3 0  9997","REF_FRAME":"TEME","MEAN_ELEMENT_THEORY":"SGP4","GP_ID":"229207992","ECCENTRICITY":"0.00007850","MEAN_MOTION":"15.08829787","TLE_LINE2":"2 53700  53.2190  24.4672 0000785 107.3732 252.7346 15.08829787 31991","ARG_OF_PERICENTER":"107.3732","EPOCH":"2023-03-31T20:03:21.631392","ELEMENT_SET_NO":"999","TIME_SYSTEM":"UTC","INCLINATION":"53.2190","MEAN_ANOMALY":"252.7346","EPHEMERIS_TYPE":"0","OBJECT_NAME":"STARLINK-4725","OBJECT_ID":"2022-107A","DECAY_DATE":null,"LAUNCH_DATE":"2022-09-05","COUNTRY_CODE":"US","APOAPSIS":"540.320","NORAD_CAT_ID":"53700","MEAN_MOTION_DOT":"-0.00002803","SEMIMAJOR_AXIS":"6917.912","CENTER_NAME":"EARTH","FILE":"3876585","MEAN_MOTION_DDOT":"0.0000000000000","BSTAR":"-0.00015815000000","PERIAPSIS":"539.234","REV_AT_EPOCH":"3199","OBJECT_TYPE":"PAYLOAD"},{"TLE_LINE2":"2 53701  53.2200  24.4429 0000949  79.0210 281.0889 15.08801034 31994","ARG_OF_PERICENTER":"79.0210","TIME_SYSTEM":"UTC","ELEMENT_SET_NO":"999","EPOCH":"2023-03-31T19:58:04.499328","MEAN_ELEMENT_THEORY":"SGP4","ECCENTRICITY":"0.00009490","GP_ID":"229207482","MEAN_MOTION":"15.08801034","SITE":"AFETR","RA_OF_ASC_NODE":"24.4429","TLE_LINE1":"1 53701U 22107B   23090.83199652 -.00008075  00000-0 -49036-3 0  9992","REF_FRAME":"TEME","PERIOD":"95.440","CLASSIFICATION_TYPE":"U","RCS_SIZE":"LARGE","PERIAPSIS":"539.208","REV_AT_EPOCH":"3199","OBJECT_TYPE":"PAYLOAD","MEAN_MOTION_DOT":"-0.00008075","CENTER_NAME":"EARTH","SEMIMAJOR_AXIS":"6917.999","FILE":"3876585","BSTAR":"-0.00049036000000","MEAN_MOTION_DDOT":"0.0000000000000","APOAPSIS":"540.521","NORAD_CAT_ID":"53701","MEAN_ANOMALY":"281.0889","OBJECT_NAME":"STARLINK-4711","EPHEMERIS_TYPE":"0","INCLINATION":"53.2200","OBJECT_ID":"2022-107B","DECAY_DATE":null,"LAUNCH_DATE":"2022-09-05","COUNTRY_CODE":"US"}];
